[{"OBJECT_NAME":"STARLINK-33681","OBJECT_ID":"2025-069F","EPOCH":"2026-03-09T11:43:45.083136","MEAN_MOTION":15.30193084,"ECCENTRICITY":0.00012402,"INCLINATION":53.1578,"RA_OF_ASC_NODE":143.4356,"ARG_OF_PERICENTER":73.8719,"MEAN_ANOMALY":286.2418,"EPHEMERIS_TYPE":0,"CLASSIFICATION_TYPE":"U","NORAD_CAT_ID":63438,"ELEMENT_SET_NO":999,"REV_AT_EPOCH":5337,"BSTAR":0.00077010313,"MEAN_MOTION_DOT":0.00022513,"MEAN_MOTION_DDOT":0},{"OBJECT_NAME":"CERISE","OBJECT_ID":"1995-033B","EPOCH":"2026-03-09T23:11:27.589056","MEAN_MOTION":15.32047731,"ECCENTRICITY":0.00057118,"INCLINATION":98.325,"RA_OF_ASC_NODE":273.5192,"ARG_OF_PERICENTER":211.8754,"MEAN_ANOMALY":148.214,"EPHEMERIS_TYPE":0,"CLASSIFICATION_TYPE":"U","NORAD_CAT_ID":23606,"ELEMENT_SET_NO":999,"REV_AT_EPOCH":66468,"BSTAR":0.00062940675,"MEAN_MOTION_DOT":0.00019422,"MEAN_MOTION_DDOT":0}]
